{
  "type": "FeatureCollection",
  "features": [
    {
      "type": "Feature",
      "properties": {
        "norad_id": 44334,
        "name": "EUTELSAT 7C",
        "group": "eutelsat",
        "lat": -0.0004860945716830655,
        "lon": 13.935184143561704,
        "alt_km": 35794.243215401744,
        "timestamp": "2025-12-14T18:52:55.169652+00:00",
        "meta_object_name": "EUTELSAT 7C",
        "meta_object_id": "2019-034B",
        "meta_epoch": "2025-12-13T22:23:38.652000",
        "meta_mean_motion": 1.00271601,
        "meta_eccentricity": 0.00031544,
        "meta_inclination": 0.0725,
        "meta_ra_of_asc_node": 177.9077,
        "meta_arg_of_pericenter": 68.1712,
        "meta_mean_anomaly": 179.6773,
        "meta_ephemeris_type": 0,
        "meta_classification_type": "U",
        "meta_norad_cat_id": 44334,
        "meta_element_set_no": 999,
        "meta_rev_at_epoch": 497,
        "meta_bstar": 0,
        "meta_mean_motion_dot": 6.5e-07,
        "meta_mean_motion_ddot": 0,
        "tle_line1": "1 44334U 19034B   25347.93308625  .00000065  00000+0  00000+0 0  9991",
        "tle_line2": "2 44334   0.0725 177.9077 0003154  68.1712 179.6773  1.00271601  4978"
      },
      "geometry": {
        "type": "Point",
        "coordinates": [
          13.935184143561704,
          -0.0004860945716830655
        ]
      }
    },
    {
      "type": "Feature",
      "properties": {
        "norad_id": 44624,
        "name": "EUTELSAT 5 WEST B",
        "group": "eutelsat",
        "lat": 0.01961900367042039,
        "lon": 1.9583877042483562,
        "alt_km": 35788.02288893979,
        "timestamp": "2025-12-14T18:52:55.169664+00:00",
        "meta_object_name": "EUTELSAT 5 WEST B",
        "meta_object_id": "2019-067A",
        "meta_epoch": "2025-12-13T22:31:38.836416",
        "meta_mean_motion": 1.00272182,
        "meta_eccentricity": 0.00032756,
        "meta_inclination": 0.0615,
        "meta_ra_of_asc_node": 352.0046,
        "meta_arg_of_pericenter": 271.3751,
        "meta_mean_anomaly": 152.3961,
        "meta_ephemeris_type": 0,
        "meta_classification_type": "U",
        "meta_norad_cat_id": 44624,
        "meta_element_set_no": 999,
        "meta_rev_at_epoch": 2257,
        "meta_bstar": 0,
        "meta_mean_motion_dot": -2.6e-07,
        "meta_mean_motion_ddot": 0,
        "tle_line1": "1 44624U 19067A   25347.93864394 -.00000026  00000+0  00000+0 0  9997",
        "tle_line2": "2 44624   0.0615 352.0046 0003275 271.3751 152.3961  1.00272182 22573"
      },
      "geometry": {
        "type": "Point",
        "coordinates": [
          1.9583877042483562,
          0.01961900367042039
        ]
      }
    },
    {
      "type": "Feature",
      "properties": {
        "norad_id": 45027,
        "name": "EUTELSAT KONNECT",
        "group": "eutelsat",
        "lat": -0.05428488115311785,
        "lon": 14.122602027750432,
        "alt_km": 35786.38450161102,
        "timestamp": "2025-12-14T18:52:55.169676+00:00",
        "meta_object_name": "EUTELSAT KONNECT",
        "meta_object_id": "2020-005B",
        "meta_epoch": "2025-12-13T22:23:38.652000",
        "meta_mean_motion": 1.00269274,
        "meta_eccentricity": 0.00014757,
        "meta_inclination": 0.0712,
        "meta_ra_of_asc_node": 96.3126,
        "meta_arg_of_pericenter": 191.1832,
        "meta_mean_anomaly": 138.4667,
        "meta_ephemeris_type": 0,
        "meta_classification_type": "U",
        "meta_norad_cat_id": 45027,
        "meta_element_set_no": 999,
        "meta_rev_at_epoch": 2247,
        "meta_bstar": 0,
        "meta_mean_motion_dot": 6.6e-07,
        "meta_mean_motion_ddot": 0,
        "tle_line1": "1 45027U 20005B   25347.93308625  .00000066  00000+0  00000+0 0  9992",
        "tle_line2": "2 45027   0.0712  96.3126 0001475 191.1832 138.4667  1.00269274 22470"
      },
      "geometry": {
        "type": "Point",
        "coordinates": [
          14.122602027750432,
          -0.05428488115311785
        ]
      }
    },
    {
      "type": "Feature",
      "properties": {
        "norad_id": 49056,
        "name": "EUTELSAT QUANTUM",
        "group": "eutelsat",
        "lat": 0.01967929614064446,
        "lon": 54.65869161433639,
        "alt_km": 35796.927061852184,
        "timestamp": "2025-12-14T18:52:55.169688+00:00",
        "meta_object_name": "EUTELSAT QUANTUM",
        "meta_object_id": "2021-069B",
        "meta_epoch": "2025-12-13T23:35:38.601888",
        "meta_mean_motion": 1.00273424,
        "meta_eccentricity": 0.00035624,
        "meta_inclination": 0.0255,
        "meta_ra_of_asc_node": 46.1867,
        "meta_arg_of_pericenter": 229.4434,
        "meta_mean_anomaly": 208.8952,
        "meta_ephemeris_type": 0,
        "meta_classification_type": "U",
        "meta_norad_cat_id": 49056,
        "meta_element_set_no": 999,
        "meta_rev_at_epoch": 1607,
        "meta_bstar": 0,
        "meta_mean_motion_dot": 1.42e-06,
        "meta_mean_motion_ddot": 0,
        "tle_line1": "1 49056U 21069B   25347.98308567  .00000142  00000+0  00000+0 0  9994",
        "tle_line2": "2 49056   0.0255  46.1867 0003562 229.4434 208.8952  1.00273424 16075"
      },
      "geometry": {
        "type": "Point",
        "coordinates": [
          54.65869161433639,
          0.01967929614064446
        ]
      }
    },
    {
      "type": "Feature",
      "properties": {
        "norad_id": 53765,
        "name": "EUTELSAT KONNECT VHTS",
        "group": "eutelsat",
        "lat": -0.05331997365111911,
        "lon": 9.659494580622516,
        "alt_km": 35792.188704864355,
        "timestamp": "2025-12-14T18:52:55.169699+00:00",
        "meta_object_name": "EUTELSAT KONNECT VHTS",
        "meta_object_id": "2022-110A",
        "meta_epoch": "2025-12-12T23:45:57.918816",
        "meta_mean_motion": 1.00271501,
        "meta_eccentricity": 0.00023835,
        "meta_inclination": 0.0657,
        "meta_ra_of_asc_node": 101.0037,
        "meta_arg_of_pericenter": 141.1037,
        "meta_mean_anomaly": 199.031,
        "meta_ephemeris_type": 0,
        "meta_classification_type": "U",
        "meta_norad_cat_id": 53765,
        "meta_element_set_no": 999,
        "meta_rev_at_epoch": 495,
        "meta_bstar": 0,
        "meta_mean_motion_dot": 3e-07,
        "meta_mean_motion_ddot": 0,
        "tle_line1": "1 53765U 22110A   25346.99025369  .00000030  00000+0  00000+0 0  9996",
        "tle_line2": "2 53765   0.0657 101.0037 0002383 141.1037 199.0310  1.00271501  4959"
      },
      "geometry": {
        "type": "Point",
        "coordinates": [
          9.659494580622516,
          -0.05331997365111911
        ]
      }
    },
    {
      "type": "Feature",
      "properties": {
        "norad_id": 54048,
        "name": "EUTELSAT HOTBIRD 13F",
        "group": "eutelsat",
        "lat": 0.06018395619441268,
        "lon": 19.92030945177397,
        "alt_km": 35777.29425068967,
        "timestamp": "2025-12-14T18:52:55.169711+00:00",
        "meta_object_name": "EUTELSAT HOTBIRD 13F",
        "meta_object_id": "2022-134A",
        "meta_epoch": "2025-12-13T15:13:25.567680",
        "meta_mean_motion": 1.00270384,
        "meta_eccentricity": 0.00022972,
        "meta_inclination": 0.0478,
        "meta_ra_of_asc_node": 293.4985,
        "meta_arg_of_pericenter": 66.2228,
        "meta_mean_anomaly": 324.1956,
        "meta_ephemeris_type": 0,
        "meta_classification_type": "U",
        "meta_norad_cat_id": 54048,
        "meta_element_set_no": 999,
        "meta_rev_at_epoch": 1151,
        "meta_bstar": 0,
        "meta_mean_motion_dot": 1.02e-06,
        "meta_mean_motion_ddot": 0,
        "tle_line1": "1 54048U 22134A   25347.63432370  .00000102  00000+0  00000+0 0  9993",
        "tle_line2": "2 54048   0.0478 293.4985 0002297  66.2228 324.1956  1.00270384 11511"
      },
      "geometry": {
        "type": "Point",
        "coordinates": [
          19.92030945177397,
          0.06018395619441268
        ]
      }
    },
    {
      "type": "Feature",
      "properties": {
        "norad_id": 54225,
        "name": "EUTELSAT HOTBIRD 13G",
        "group": "eutelsat",
        "lat": 0.037048998912892955,
        "lon": 19.90853887705072,
        "alt_km": 35792.657002296204,
        "timestamp": "2025-12-14T18:52:55.169724+00:00",
        "meta_object_name": "EUTELSAT HOTBIRD 13G",
        "meta_object_id": "2022-146A",
        "meta_epoch": "2025-12-13T08:22:27.424992",
        "meta_mean_motion": 1.00272446,
        "meta_eccentricity": 0.00017362,
        "meta_inclination": 0.0478,
        "meta_ra_of_asc_node": 234.0643,
        "meta_arg_of_pericenter": 306.9385,
        "meta_mean_anomaly": 39.8842,
        "meta_ephemeris_type": 0,
        "meta_classification_type": "U",
        "meta_norad_cat_id": 54225,
        "meta_element_set_no": 999,
        "meta_rev_at_epoch": 560,
        "meta_bstar": 0,
        "meta_mean_motion_dot": 1.01e-06,
        "meta_mean_motion_ddot": 0,
        "tle_line1": "1 54225U 22146A   25347.34892853  .00000101  00000+0  00000+0 0  9996",
        "tle_line2": "2 54225   0.0478 234.0643 0001736 306.9385  39.8842  1.00272446  5603"
      },
      "geometry": {
        "type": "Point",
        "coordinates": [
          19.90853887705072,
          0.037048998912892955
        ]
      }
    }
  ]
}